AKEBONO (EXOS-D)        
1 19822U 89016A   16043.19524523  .00048360  50208-6  10268-2 0  9992
2 19822  75.0387 124.8337 2015818 180.4381 179.4942 11.45484409852418
HST                     
1 20580U 90037B   16043.19074072  .00002058  00000-0  11870-3 0  9993
2 20580  28.4710  10.6522 0002595 294.7242 188.3758 15.08143533216075
POLAR                   
1 23802U 96013A   16042.59437665 -.00000068  00000-0  00000+0 0  9996
2 23802  78.3593 282.8172 7478951 343.9250   1.9095  1.29842264 95780
SWAS                    
1 25560U 98071A   16042.54548745  .00001007  00000-0  10560-3 0  9991
2 25560  69.8984  56.5838 0010324 225.1761 134.8556 14.92893851932155
ORSTED                  
1 25635U 99008B   16043.12521166  .00000392  00000-0  10136-3 0  9993
2 25635  96.4465  57.5832 0139640  14.2879 346.2205 14.47839486895177
CXO                     
1 25867U 99040B   16046.15157521  .00000583  00000-0  00000+0 0  9999
2 25867  76.2741 300.8675 7210721 263.9083   0.3080  0.37801693 14202
XMM-NEWTON              
1 25989U 99066A   16045.01076278 -.00000410  00000-0  00000+0 0  9995
2 25989  67.1836  29.3875 8171709  94.6363   0.3515  0.50164931 18433
TERRA                   
1 25994U 99068A   16043.42397167  .00000235  00000-0  62194-4 0  9990
2 25994  98.1998 119.4910 0001430 108.3646 251.7716 14.57122779859204
CLUSTER II-FM6 (SALSA)  
1 26410U 00041A   16042.59557555  .00000019  00000-0  00000+0 0  9996
2 26410 131.7062 327.8257 5271183 140.4582 359.4351  0.44181990 15327
CLUSTER II-FM7 (SAMBA)  
1 26411U 00041B   16044.91282094 -.00000240  00000-0  00000+0 0  9995
2 26411 130.7193 329.6342 5765641 146.9338 359.3265  0.44197138 15418
CLUSTER II-FM5 (RUMBA)  
1 26463U 00045A   16044.75093226 -.00000148  00000-0  00000+0 0  9992
2 26463 134.1789 327.2717 5449359 144.4500 359.2971  0.44240965 15918
CLUSTER II-FM8 (TANGO)  
1 26464U 00045B   16042.57543400  .00000018  00000-0  00000+0 0  9990
2 26464 131.6748 327.8306 5271112 140.4729 359.0611  0.44196433 51240
ODIN                    
1 26702U 01007A   16042.81088380  .00002684  00000-0  18728-3 0  9993
2 26702  97.6316  58.8637 0009834 290.8975  69.1198 15.06206517817656
TIMED                   
1 26998U 01055B   16042.87516553  .00000709  00000-0  82065-4 0  9999
2 26998  74.0703 212.5946 0001426 313.1427  46.9635 14.87622343768419
RHESSI                  
1 27370U 02004A   16043.48420548  .00010276  00000-0  40772-3 0  9993
2 27370  38.0360 152.8829 0011322  24.6553 335.4755 15.24906986771232
INTEGRAL                
1 27540U 02048A   16042.73599535  .00000845  00000-0  00000+0 0  9997
2 27540  52.1825 210.9538 8053281 259.0281 359.9996  0.37721296 12454
CORIOLIS                
1 27640U 03001A   16042.87995624  .00000045  00000-0  42656-4 0  9992
2 27640  98.7506  53.6044 0013051 279.4408 144.0398 14.18886446678271
SORCE                   
1 27651U 03004A   16042.83761600  .00000984  00000-0  11895-3 0  9990
2 27651  39.9946 179.0429 0023051  21.0649 339.1085 14.88195869707550
MOST                    
1 27843U 03031D   16043.53056781  .00000033  00000-0  35883-4 0  9997
2 27843  98.7163  52.6342 0009768 354.6767   5.4304 14.20512317654298
SCISAT 1                
1 27858U 03036A   16042.79308690  .00000321  00000-0  50642-4 0  9994
2 27858  73.9323  77.6961 0009437 289.2394  70.7759 14.76979555673228
SWIFT                   
1 28485U 04047A   16043.15140620  .00003237  00000-0  20285-3 0  9990
2 28485  20.5579 325.5130 0011763 158.5044 201.5885 15.02806540614215
FORMOSAT-3 FM6          
1 29047U 06011A   16042.75001011  .00000282  00000-0  12748-3 0  9995
2 29047  71.9797 109.8497 0052872 279.0885  80.4271 14.28467607514585
FORMOSAT-3 FM1          
1 29048U 06011B   16043.50562211  .00000106  00000-0  58511-4 0  9998
2 29048  71.9684  20.9833 0046419 234.5899 264.7335 14.28416049517180
FORMOSAT-3 FM5          
1 29049U 06011C   16043.54619819  .00000231  00000-0  10824-3 0  9993
2 29049  72.0198 183.5822 0036913 273.7299  85.9617 14.28434831512960
FORMOSAT-3 FM3          
1 29050U 06011D   16043.50816474  .00000705  00000-0  16055-3 0  9995
2 29050  72.0168 131.0602 0051611 325.9068  33.8771 14.58199526525036
FORMOSAT-3 FM4          
1 29051U 06011E   16043.15465792  .00000206  00000-0  96190-4 0  9995
2 29051  72.0056  89.3114 0067405 150.9858 209.5052 14.28447612515499
FORMOSAT-3 FM2          
1 29052U 06011F   16043.46979217  .00000255  00000-0  11699-3 0  9996
2 29052  72.0350 158.1843 0042124 239.1849 120.5140 14.28550826513852
CLOUDSAT                
1 29107U 06016A   16043.51396272  .00000524  00000-0  12653-3 0  9992
2 29107  98.2223 348.5669 0001947  94.4879 265.6542 14.57093832520975
CALIPSO                 
1 29108U 06016B   16043.51275857  .00000594  00000-0  14205-3 0  9990
2 29108  98.2228 348.1506 0001304  82.5306 277.6040 14.57081030520903
HINODE (SOLAR-B)        
1 29479U 06041A   16043.55721561  .00000379  00000-0  80357-4 0  9994
2 29479  98.1558  45.9664 0016446 324.8605  35.1512 14.64634099501573
SJ-6C                   
1 29505U 06046A   16043.42203138  .00001083  00000-0  10677-3 0  9990
2 29505  97.8021  41.8671 0001707 306.6575  53.4499 14.94072640506589
SJ-6D                   
1 29506U 06046B   16043.38052179 -.00000004  00000-0  51197-5 0  9990
2 29506  97.8183  40.8211 0002408  25.2706 334.8633 14.93037164506315
AGILE                   
1 31135U 07013A   16043.18229137  .00007266  00000-0  22230-3 0  9994
2 31135   2.4683 326.3298 0014327 289.0019  70.8483 15.27302150488441
AIM                     
1 31304U 07015A   16043.50330391  .00007042  00000-0  43423-3 0  9994
2 31304  97.9505 195.1842 0005667  17.7040 342.4384 15.10263600480814
FGRST (GLAST)           
1 33053U 08029A   16043.49632650  .00001639  00000-0  79604-4 0  9991
2 33053  25.5829 102.0713 0012571   9.8530 350.2250 15.10434439423035
IBEX                    
1 33401U 08051A   16044.42120055 -.00002422  00000-0  00000+0 0  9999
2 33401  26.4293  43.7859 5065143 135.4623   4.7176  0.09890333  3107
WISE                    
1 36119U 09071A   16042.80671730  .00004112  00000-0  16020-3 0  9992
2 36119  97.4903  63.6415 0001289 221.1344 138.9797 15.26542095341265
SDO                     
1 36395U 10005A   16041.50037706 -.00000079  00000-0  00000+0 0  9998
2 36395  28.2957 149.3552 0002295 178.4282 250.2352  1.00268312 22130
CRYOSAT 2               
1 36508U 10013A   16043.19442915  .00000152  00000-0  36888-4 0  9991
2 36508  92.0260  83.6695 0006980 194.7518 165.3487 14.52177331309907
PICARD                  
1 36598U 10028A   16043.41074298  .00000171  00000-0  55028-4 0  9994
2 36598  98.3076 229.3691 0002499  64.4912 295.6543 14.50415359299616
SPEKTR-R                
1 37755U 11037A   16047.00323196 -.00010078  00000-0  00000+0 0  9997
2 37755  46.0496  78.1903 8785867 237.9298   2.0640  0.11026588  1964
GCOM-W1 (SHIZUKU)       
1 38337U 12025A   16043.46627716  .00000375  00000-0  93231-4 0  9994
2 38337  98.2217 344.7930 0001306  80.3534  56.2963 14.57113722198909
NUSTAR                  
1 38358U 12031A   16043.14234760  .00002306  00000-0  17373-3 0  9990
2 38358   6.0261 271.8613 0011432  63.0428 297.0868 14.87183574199205
RBSP A                  
1 38752U 12046A   16041.52551794 -.00000059  00000-0  25768-3 0  9994
2 38752  10.1386  58.7739 6818182  53.2954 351.8287  2.68101414 33677
RBSP B                  
1 38753U 12046B   16042.47703664 -.00000075  00000-0  18684-3 0  9992
2 38753  10.1197  64.0568 6833480  43.0558 353.7606  2.65109173 33520
NEOSSAT                 
1 39089U 13009D   16043.56501661  .00000099  00000-0  50891-4 0  9991
2 39089  98.5893 245.0081 0010297 315.6487  44.3872 14.34319543155068
BRITE-AUSTRIA           
1 39091U 13009F   16042.81221360  .00000077  00000-0  42559-4 0  9994
2 39091  98.5877 245.2905 0009935 330.1073  29.9544 14.34952948155023
UNIBRITE                
1 39092U 13009G   16043.53534922  .00000083  00000-0  44847-4 0  9995
2 39092  98.5879 245.7695 0008677 321.0364  39.0195 14.34826474155119
IRIS                    
1 39197U 13033A   16042.61499230  .00000684  00000-0  10121-3 0  9992
2 39197  97.9112 226.2366 0027218 327.6892  32.2650 14.78108701141487
HISAKI (SPRINT-A)       
1 39253U 13049A   16042.29755672  .00000084  00000-0  27830-4 0  9991
2 39253  29.7214 343.6959 0136772 353.8749   6.0153 13.55146884119464
CASSIOPE                
1 39265U 13055A   16043.39159289  .00016435  00000-0  50215-3 0  9994
2 39265  80.9752 161.0507 0710223 228.4934 125.3193 14.17371517121820
DANDE                   
1 39267U 13055C   16043.21320191  .00009761  00000-0  30333-3 0  9992
2 39267  81.0161 166.0555 0730194 237.6334 115.2159 14.12788883121587
STSAT-3                 
1 39422U 13066G   16043.40893970  .00000692  00000-0  78817-4 0  9992
2 39422  97.7170 113.8005 0024579  60.7729 299.5956 14.89062851120887
BRITE-PL                
1 39431U 13066R   16042.59142549  .00000196  00000-0  52183-4 0  9997
2 39431  97.6820  59.1567 0202713 197.6957 161.7106 14.46659498117373
SWARM B                 
1 39451U 13067A   16043.52697996  .00001939  00000-0  87689-4 0  9990
2 39451  87.7507  34.5553 0003894  95.7035 264.4654 15.20319365123288
SWARM A                 
1 39452U 13067B   16043.19437411  .00005953  00000-0  14791-3 0  9991
2 39452  87.3528 349.1065 0004169  90.9464 269.2269 15.40080673124511
SWARM C                 
1 39453U 13067C   16043.19431801  .00005886  00000-0  14623-3 0  9998
2 39453  87.3528 350.5144 0004030  91.8651 268.3066 15.40080738124473
BRITE-TORONTO           
1 40020U 14033L   16043.32524032  .00000366  00000-0  71219-4 0  9991
2 40020  97.9061 288.1082 0089271  87.0167 274.1248 14.66193689 88169
OCO 2                   
1 40059U 14035A   16043.30078725  .00000323  00000-0  81729-4 0  9996
2 40059  98.2221 345.8037 0001583  72.3250 287.8121 14.57123983 85904
BRITE-PL 2              
1 40119U 14049B   16043.21404382  .00000772  00000-0  99615-4 0  9991
2 40119  97.9687 124.8708 0016444 248.6536 111.2923 14.83807336 80343
RESURS P2               
1 40360U 14087A   16043.55716704  .00001880  00000-0  62109-4 0  9991
2 40360  97.2839 139.4497 0008723 322.8946  94.6265 15.32610569 63261
MMS 1                   
1 40482U 15011A   16043.53957624 -.00000139  00000-0  00000+0 0  9994
2 40482  28.7171 354.1013 8154355  80.6014  37.9877  1.00497745  3385
MMS 2                   
1 40483U 15011B   16041.73145653 -.00000089  00000-0  00000+0 0  9990
2 40483  28.7275 354.3029 8155848  80.2821 103.8547  1.00499826  3367
MMS 3                   
1 40484U 15011C   16043.48388572 -.00000138  00000-0  00000+0 0  9999
2 40484  28.7163 354.1011 8156394  80.5883  17.8794  1.00497750  3385
MMS 4                   
1 40485U 15011D   16043.48388411 -.00000138  00000-0  00000+0 0  9992
2 40485  28.7254 354.0951 8156250  80.6054  17.8464  1.00497807  3388
ASTROSAT                
1 40930U 15052A   16043.11540531  .00001212  00000-0  80965-4 0  9991
2 40930   5.9916 134.1989 0011696 130.4783 229.6422 14.76258584 20270
DAMPE                   
1 41173U 15078A   16043.49726799  .00000646  00000-0  30088-4 0  9993
2 41173  97.2988  59.2888 0015854  84.8096  80.6862 15.23261307  8759
